{
  "type": "FeatureCollection",
  "features": [
    {
      "type": "Feature",
      "properties": {
        "norad_id": 31452,
        "name": "FENGYUN 1C DEB",
        "group": "fengyun-1c-debris",
        "lat": 8.611463884526856,
        "lon": 152.65719054298995,
        "alt_km": 819.8906289377328,
        "timestamp": "2025-12-10T07:43:55.061717+00:00",
        "meta_object_name": "FENGYUN 1C DEB",
        "meta_object_id": "1999-025BUQ",
        "meta_epoch": "2025-12-08T05:43:08.652576",
        "meta_mean_motion": 14.15158689,
        "meta_eccentricity": 0.00406418,
        "meta_inclination": 98.6574,
        "meta_ra_of_asc_node": 329.3128,
        "meta_arg_of_pericenter": 140.4779,
        "meta_mean_anomaly": 219.9371,
        "meta_ephemeris_type": 0,
        "meta_classification_type": "U",
        "meta_norad_cat_id": 31452,
        "meta_element_set_no": 999,
        "meta_rev_at_epoch": 96142,
        "meta_bstar": 0.00062348352,
        "meta_mean_motion_dot": 1.178e-05,
        "meta_mean_motion_ddot": 0,
        "tle_line1": "1 31452U 99025BUQ 25342.23829459  .00001178  00000+0  62348-3 0  9990",
        "tle_line2": "2 31452  98.6574 329.3128 0040641 140.4779 219.9371 14.15158689961423"
      },
      "geometry": {
        "type": "Point",
        "coordinates": [
          152.65719054298995,
          8.611463884526856
        ]
      }
    },
    {
      "type": "Feature",
      "properties": {
        "norad_id": 31455,
        "name": "FENGYUN 1C DEB",
        "group": "fengyun-1c-debris",
        "lat": -4.085474497419626,
        "lon": 152.0405589110988,
        "alt_km": 948.6890583521763,
        "timestamp": "2025-12-10T07:43:55.061727+00:00",
        "meta_object_name": "FENGYUN 1C DEB",
        "meta_object_id": "1999-025BUT",
        "meta_epoch": "2025-12-01T05:06:27.684288",
        "meta_mean_motion": 14.11407074,
        "meta_eccentricity": 0.0218887,
        "meta_inclination": 98.5737,
        "meta_ra_of_asc_node": 323.9486,
        "meta_arg_of_pericenter": 84.0104,
        "meta_mean_anomaly": 278.5966,
        "meta_ephemeris_type": 0,
        "meta_classification_type": "U",
        "meta_norad_cat_id": 31455,
        "meta_element_set_no": 999,
        "meta_rev_at_epoch": 95941,
        "meta_bstar": 0.00026567,
        "meta_mean_motion_dot": 5.62e-06,
        "meta_mean_motion_ddot": 0,
        "tle_line1": "1 31455U 99025BUT 25335.21282042  .00000562  00000+0  26567-3 0  9993",
        "tle_line2": "2 31455  98.5737 323.9486 0218887  84.0104 278.5966 14.11407074959415"
      },
      "geometry": {
        "type": "Point",
        "coordinates": [
          152.0405589110988,
          -4.085474497419626
        ]
      }
    },
    {
      "type": "Feature",
      "properties": {
        "norad_id": 31456,
        "name": "FENGYUN 1C DEB",
        "group": "fengyun-1c-debris",
        "lat": -72.3291299375589,
        "lon": -121.62442032034087,
        "alt_km": 739.1533791091606,
        "timestamp": "2025-12-10T07:43:55.061737+00:00",
        "meta_object_name": "FENGYUN 1C DEB",
        "meta_object_id": "1999-025BUU",
        "meta_epoch": "2025-12-08T12:55:41.925216",
        "meta_mean_motion": 14.42364551,
        "meta_eccentricity": 0.0067565,
        "meta_inclination": 98.5774,
        "meta_ra_of_asc_node": 84.8613,
        "meta_arg_of_pericenter": 327.2292,
        "meta_mean_anomaly": 32.4714,
        "meta_ephemeris_type": 0,
        "meta_classification_type": "U",
        "meta_norad_cat_id": 31456,
        "meta_element_set_no": 999,
        "meta_rev_at_epoch": 97406,
        "meta_bstar": 0.0013396,
        "meta_mean_motion_dot": 4.506e-05,
        "meta_mean_motion_ddot": 0,
        "tle_line1": "1 31456U 99025BUU 25342.53867969  .00004506  00000+0  13396-2 0  9991",
        "tle_line2": "2 31456  98.5774  84.8613 0067565 327.2292  32.4714 14.42364551974069"
      },
      "geometry": {
        "type": "Point",
        "coordinates": [
          -121.62442032034087,
          -72.3291299375589
        ]
      }
    },
    {
      "type": "Feature",
      "properties": {
        "norad_id": 31459,
        "name": "FENGYUN 1C DEB",
        "group": "fengyun-1c-debris",
        "lat": -4.241568083917185,
        "lon": 72.06754783777802,
        "alt_km": 701.215908338515,
        "timestamp": "2025-12-10T07:43:55.061747+00:00",
        "meta_object_name": "FENGYUN 1C DEB",
        "meta_object_id": "1999-025BUX",
        "meta_epoch": "2025-12-08T23:17:29.370912",
        "meta_mean_motion": 14.44022338,
        "meta_eccentricity": 0.0093801,
        "meta_inclination": 98.1755,
        "meta_ra_of_asc_node": 251.3793,
        "meta_arg_of_pericenter": 143.1676,
        "meta_mean_anomaly": 217.6008,
        "meta_ephemeris_type": 0,
        "meta_classification_type": "U",
        "meta_norad_cat_id": 31459,
        "meta_element_set_no": 999,
        "meta_rev_at_epoch": 64503,
        "meta_bstar": 0.0015164,
        "meta_mean_motion_dot": 5.43e-05,
        "meta_mean_motion_ddot": 0,
        "tle_line1": "1 31459U 99025BUX 25342.97047883  .00005430  00000+0  15164-2 0  9999",
        "tle_line2": "2 31459  98.1755 251.3793 0093801 143.1676 217.6008 14.44022338645031"
      },
      "geometry": {
        "type": "Point",
        "coordinates": [
          72.06754783777802,
          -4.241568083917185
        ]
      }
    },
    {
      "type": "Feature",
      "properties": {
        "norad_id": 31462,
        "name": "FENGYUN 1C DEB",
        "group": "fengyun-1c-debris",
        "lat": -80.34541125988035,
        "lon": 66.83151014724125,
        "alt_km": 845.8401066256201,
        "timestamp": "2025-12-10T07:43:55.061758+00:00",
        "meta_object_name": "FENGYUN 1C DEB",
        "meta_object_id": "1999-025BVA",
        "meta_epoch": "2025-12-09T20:49:55.104096",
        "meta_mean_motion": 14.13005543,
        "meta_eccentricity": 0.0031947,
        "meta_inclination": 98.6905,
        "meta_ra_of_asc_node": 2.3538,
        "meta_arg_of_pericenter": 212.6442,
        "meta_mean_anomaly": 272.282,
        "meta_ephemeris_type": 0,
        "meta_classification_type": "U",
        "meta_norad_cat_id": 31462,
        "meta_element_set_no": 999,
        "meta_rev_at_epoch": 95815,
        "meta_bstar": 0.00053446,
        "meta_mean_motion_dot": 9.59e-06,
        "meta_mean_motion_ddot": 0,
        "tle_line1": "1 31462U 99025BVA 25343.86799889  .00000959  00000+0  53446-3 0  9999",
        "tle_line2": "2 31462  98.6905   2.3538 0031947 212.6442 272.2820 14.13005543958158"
      },
      "geometry": {
        "type": "Point",
        "coordinates": [
          66.83151014724125,
          -80.34541125988035
        ]
      }
    },
    {
      "type": "Feature",
      "properties": {
        "norad_id": 31463,
        "name": "FENGYUN 1C DEB",
        "group": "fengyun-1c-debris",
        "lat": 29.857088723107527,
        "lon": -39.391401419212805,
        "alt_km": 620.2224498386477,
        "timestamp": "2025-12-10T07:43:55.061768+00:00",
        "meta_object_name": "FENGYUN 1C DEB",
        "meta_object_id": "1999-025BVB",
        "meta_epoch": "2025-12-08T17:09:36.295488",
        "meta_mean_motion": 14.369225,
        "meta_eccentricity": 0.02139366,
        "meta_inclination": 99.0801,
        "meta_ra_of_asc_node": 324.1798,
        "meta_arg_of_pericenter": 51.5947,
        "meta_mean_anomaly": 310.4236,
        "meta_ephemeris_type": 0,
        "meta_classification_type": "U",
        "meta_norad_cat_id": 31463,
        "meta_element_set_no": 999,
        "meta_rev_at_epoch": 64662,
        "meta_bstar": 0.00090062537,
        "meta_mean_motion_dot": 3.414e-05,
        "meta_mean_motion_ddot": 0,
        "tle_line1": "1 31463U 99025BVB 25342.71500342  .00003414  00000+0  90063-3 0  9992",
        "tle_line2": "2 31463  99.0801 324.1798 0213936  51.5947 310.4236 14.36922500646620"
      },
      "geometry": {
        "type": "Point",
        "coordinates": [
          -39.391401419212805,
          29.857088723107527
        ]
      }
    },
    {
      "type": "Feature",
      "properties": {
        "norad_id": 31464,
        "name": "FENGYUN 1C DEB",
        "group": "fengyun-1c-debris",
        "lat": -41.33585042023832,
        "lon": -156.67642075154782,
        "alt_km": 829.7991308382061,
        "timestamp": "2025-12-10T07:43:55.061778+00:00",
        "meta_object_name": "FENGYUN 1C DEB",
        "meta_object_id": "1999-025BVC",
        "meta_epoch": "2025-12-08T09:04:42.155616",
        "meta_mean_motion": 14.12469302,
        "meta_eccentricity": 0.00430438,
        "meta_inclination": 98.7953,
        "meta_ra_of_asc_node": 29.243,
        "meta_arg_of_pericenter": 254.8356,
        "meta_mean_anomaly": 168.2264,
        "meta_ephemeris_type": 0,
        "meta_classification_type": "U",
        "meta_norad_cat_id": 31464,
        "meta_element_set_no": 999,
        "meta_rev_at_epoch": 94618,
        "meta_bstar": 0.00054133303,
        "meta_mean_motion_dot": 9.64e-06,
        "meta_mean_motion_ddot": 0,
        "tle_line1": "1 31464U 99025BVC 25342.37826569  .00000964  00000+0  54133-3 0  9992",
        "tle_line2": "2 31464  98.7953  29.2430 0043043 254.8356 168.2264 14.12469302946187"
      },
      "geometry": {
        "type": "Point",
        "coordinates": [
          -156.67642075154782,
          -41.33585042023832
        ]
      }
    }
  ]
}